CCSDS_OMM_VERS = 2.0
CREATION_DATE  = 
ORIGINATOR     = 

OBJECT_NAME    = IDEFIX & ARIANE 42P R/B
OBJECT_ID      = 2002-021B
CENTER_NAME    = EARTH
REF_FRAME      = TEME
TIME_SYSTEM    = UTC
MEAN_ELEMENT_THEORY = SGP/SGP4

EPOCH          = 2026-02-17T10:17:21.895296
MEAN_MOTION    = 14.31011159
ECCENTRICITY   = .00106646
INCLINATION    = 98.5852
RA_OF_ASC_NODE = 347.2796
ARG_OF_PERICENTER = 245.7547
MEAN_ANOMALY   = 114.2522

EPHEMERIS_TYPE = 0
CLASSIFICATION_TYPE = U
NORAD_CAT_ID   = 27422
ELEMENT_SET_NO = 999
REV_AT_EPOCH   = 24112
BSTAR          = .12575738E-3
MEAN_MOTION_DOT = .287E-5
MEAN_MOTION_DDOT = 0

CCSDS_OMM_VERS = 2.0
CREATION_DATE  = 
ORIGINATOR     = 

OBJECT_NAME    = AQUA
OBJECT_ID      = 2002-022A
CENTER_NAME    = EARTH
REF_FRAME      = TEME
TIME_SYSTEM    = UTC
MEAN_ELEMENT_THEORY = SGP/SGP4

EPOCH          = 2026-02-17T13:43:51.060864
MEAN_MOTION    = 14.61924813
ECCENTRICITY   = .00011936
INCLINATION    = 98.4138
RA_OF_ASC_NODE = 15.5767
ARG_OF_PERICENTER = 47.8065
MEAN_ANOMALY   = 63.7174

EPHEMERIS_TYPE = 0
CLASSIFICATION_TYPE = U
NORAD_CAT_ID   = 27424
ELEMENT_SET_NO = 999
REV_AT_EPOCH   = 26579
BSTAR          = .20210832E-3
MEAN_MOTION_DOT = .962E-5
MEAN_MOTION_DDOT = 0

CCSDS_OMM_VERS = 2.0
CREATION_DATE  = 
ORIGINATOR     = 

OBJECT_NAME    = CZ-4B R/B
OBJECT_ID      = 2002-024C
CENTER_NAME    = EARTH
REF_FRAME      = TEME
TIME_SYSTEM    = UTC
MEAN_ELEMENT_THEORY = SGP/SGP4

EPOCH          = 2026-02-17T13:54:13.529664
MEAN_MOTION    = 14.14543820
ECCENTRICITY   = .00511888
INCLINATION    = 98.8886
RA_OF_ASC_NODE = 102.0830
ARG_OF_PERICENTER = 80.5282
MEAN_ANOMALY   = 79.2939

EPHEMERIS_TYPE = 0
CLASSIFICATION_TYPE = U
NORAD_CAT_ID   = 27432
ELEMENT_SET_NO = 999
REV_AT_EPOCH   = 22639
BSTAR          = .44517296E-4
MEAN_MOTION_DOT = .42E-6
MEAN_MOTION_DDOT = 0

CCSDS_OMM_VERS = 2.0
CREATION_DATE  = 
ORIGINATOR     = 

OBJECT_NAME    = MIDORI II (ADEOS-II)
OBJECT_ID      = 2002-056A
CENTER_NAME    = EARTH
REF_FRAME      = TEME
TIME_SYSTEM    = UTC
MEAN_ELEMENT_THEORY = SGP/SGP4

EPOCH          = 2026-02-17T12:03:10.743552
MEAN_MOTION    = 14.29269681
ECCENTRICITY   = .00021478
INCLINATION    = 98.7734
RA_OF_ASC_NODE = 6.8451
ARG_OF_PERICENTER = 70.2359
MEAN_ANOMALY   = 289.9054

EPHEMERIS_TYPE = 0
CLASSIFICATION_TYPE = U
NORAD_CAT_ID   = 27597
ELEMENT_SET_NO = 999
REV_AT_EPOCH   = 20741
BSTAR          = .13869159E-3
MEAN_MOTION_DOT = .307E-5
MEAN_MOTION_DDOT = 0

CCSDS_OMM_VERS = 2.0
CREATION_DATE  = 
ORIGINATOR     = 

OBJECT_NAME    = H-2A R/B
OBJECT_ID      = 2002-056E
CENTER_NAME    = EARTH
REF_FRAME      = TEME
TIME_SYSTEM    = UTC
MEAN_ELEMENT_THEORY = SGP/SGP4

EPOCH          = 2026-02-17T11:28:50.947680
MEAN_MOTION    = 14.33746352
ECCENTRICITY   = .00692868
INCLINATION    = 98.3167
RA_OF_ASC_NODE = 9.6181
ARG_OF_PERICENTER = 221.1363
MEAN_ANOMALY   = 248.2322

EPHEMERIS_TYPE = 0
CLASSIFICATION_TYPE = U
NORAD_CAT_ID   = 27601
ELEMENT_SET_NO = 999
REV_AT_EPOCH   = 21121
BSTAR          = .11479318E-3
MEAN_MOTION_DOT = .285E-5
MEAN_MOTION_DDOT = 0

CCSDS_OMM_VERS = 2.0
CREATION_DATE  = 
ORIGINATOR     = 

OBJECT_NAME    = CZ-4B R/B
OBJECT_ID      = 2003-049C
CENTER_NAME    = EARTH
REF_FRAME      = TEME
TIME_SYSTEM    = UTC
MEAN_ELEMENT_THEORY = SGP/SGP4

EPOCH          = 2026-02-17T13:52:43.017888
MEAN_MOTION    = 14.54998015
ECCENTRICITY   = .00470949
INCLINATION    = 98.6858
RA_OF_ASC_NODE = 42.6975
ARG_OF_PERICENTER = 293.8152
MEAN_ANOMALY   = 65.8111

EPHEMERIS_TYPE = 0
CLASSIFICATION_TYPE = U
NORAD_CAT_ID   = 28059
ELEMENT_SET_NO = 999
REV_AT_EPOCH   = 18367
BSTAR          = .10519414E-3
MEAN_MOTION_DOT = .407E-5
MEAN_MOTION_DDOT = 0

CCSDS_OMM_VERS = 2.0
CREATION_DATE  = 
ORIGINATOR     = 

OBJECT_NAME    = CZ-2C R/B
OBJECT_ID      = 2004-012C
CENTER_NAME    = EARTH
REF_FRAME      = TEME
TIME_SYSTEM    = UTC
MEAN_ELEMENT_THEORY = SGP/SGP4

EPOCH          = 2026-02-17T13:45:41.743584
MEAN_MOTION    = 15.62133700
ECCENTRICITY   = .00151223
INCLINATION    = 97.7281
RA_OF_ASC_NODE = 111.9956
ARG_OF_PERICENTER = 28.3678
MEAN_ANOMALY   = 331.8399

EPHEMERIS_TYPE = 0
CLASSIFICATION_TYPE = U
NORAD_CAT_ID   = 28222
ELEMENT_SET_NO = 999
REV_AT_EPOCH   = 20113
BSTAR          = .52060695E-3
MEAN_MOTION_DOT = .45947E-3
MEAN_MOTION_DDOT = 0

CCSDS_OMM_VERS = 2.0
CREATION_DATE  = 
ORIGINATOR     = 

OBJECT_NAME    = SL-16 R/B
OBJECT_ID      = 2004-021B
CENTER_NAME    = EARTH
REF_FRAME      = TEME
TIME_SYSTEM    = UTC
MEAN_ELEMENT_THEORY = SGP/SGP4

EPOCH          = 2026-02-17T02:12:12.605184
MEAN_MOTION    = 14.14594858
ECCENTRICITY   = .00032219
INCLINATION    = 70.9989
RA_OF_ASC_NODE = 275.7212
ARG_OF_PERICENTER = 59.4851
MEAN_ANOMALY   = 300.6589

EPHEMERIS_TYPE = 0
CLASSIFICATION_TYPE = U
NORAD_CAT_ID   = 28353
ELEMENT_SET_NO = 999
REV_AT_EPOCH   = 11992
BSTAR          = .20367576E-3
MEAN_MOTION_DOT = .344E-5
MEAN_MOTION_DDOT = 0

CCSDS_OMM_VERS = 2.0
CREATION_DATE  = 
ORIGINATOR     = 

OBJECT_NAME    = CZ-4B R/B
OBJECT_ID      = 2004-035C
CENTER_NAME    = EARTH
REF_FRAME      = TEME
TIME_SYSTEM    = UTC
MEAN_ELEMENT_THEORY = SGP/SGP4

EPOCH          = 2026-02-17T13:18:06.184800
MEAN_MOTION    = 15.28678487
ECCENTRICITY   = .00334661
INCLINATION    = 97.3528
RA_OF_ASC_NODE = 83.0409
ARG_OF_PERICENTER = 42.8003
MEAN_ANOMALY   = 317.5833

EPHEMERIS_TYPE = 0
CLASSIFICATION_TYPE = U
NORAD_CAT_ID   = 28415
ELEMENT_SET_NO = 999
REV_AT_EPOCH   = 17683
BSTAR          = .25701884E-3
MEAN_MOTION_DOT = .7211E-4
MEAN_MOTION_DDOT = 0

CCSDS_OMM_VERS = 2.0
CREATION_DATE  = 
ORIGINATOR     = 

OBJECT_NAME    = CZ-2C R/B
OBJECT_ID      = 2004-046B
CENTER_NAME    = EARTH
REF_FRAME      = TEME
TIME_SYSTEM    = UTC
MEAN_ELEMENT_THEORY = SGP/SGP4

EPOCH          = 2026-02-17T08:40:24.009600
MEAN_MOTION    = 14.26984754
ECCENTRICITY   = .01386343
INCLINATION    = 98.1995
RA_OF_ASC_NODE = 324.6086
ARG_OF_PERICENTER = 214.6064
MEAN_ANOMALY   = 144.6037

EPHEMERIS_TYPE = 0
CLASSIFICATION_TYPE = U
NORAD_CAT_ID   = 28480
ELEMENT_SET_NO = 999
REV_AT_EPOCH   = 10560
BSTAR          = .55980668E-4
MEAN_MOTION_DOT = .109E-5
MEAN_MOTION_DDOT = 0

CCSDS_OMM_VERS = 2.0
CREATION_DATE  = 
ORIGINATOR     = 

OBJECT_NAME    = ARIANE 5 R/B
OBJECT_ID      = 2004-049H
CENTER_NAME    = EARTH
REF_FRAME      = TEME
TIME_SYSTEM    = UTC
MEAN_ELEMENT_THEORY = SGP/SGP4

EPOCH          = 2026-02-17T10:07:32.084832
MEAN_MOTION    = 14.85225370
ECCENTRICITY   = .00852521
INCLINATION    = 98.2593
RA_OF_ASC_NODE = 216.1250
ARG_OF_PERICENTER = 57.3020
MEAN_ANOMALY   = 303.6378

EPHEMERIS_TYPE = 0
CLASSIFICATION_TYPE = U
NORAD_CAT_ID   = 28499
ELEMENT_SET_NO = 999
REV_AT_EPOCH   = 14278
BSTAR          = .10731239E-3
MEAN_MOTION_DOT = .918E-5
MEAN_MOTION_DDOT = 0

CCSDS_OMM_VERS = 2.0
CREATION_DATE  = 
ORIGINATOR     = 

OBJECT_NAME    = CZ-2D R/B
OBJECT_ID      = 2005-024B
CENTER_NAME    = EARTH
REF_FRAME      = TEME
TIME_SYSTEM    = UTC
MEAN_ELEMENT_THEORY = SGP/SGP4

EPOCH          = 2026-02-17T13:22:11.551296
MEAN_MOTION    = 15.58312243
ECCENTRICITY   = .00076836
INCLINATION    = 97.3604
RA_OF_ASC_NODE = 62.9938
ARG_OF_PERICENTER = 94.3884
MEAN_ANOMALY   = 265.8250

EPHEMERIS_TYPE = 0
CLASSIFICATION_TYPE = U
NORAD_CAT_ID   = 28738
ELEMENT_SET_NO = 999
REV_AT_EPOCH   = 13664
BSTAR          = .42917453E-3
MEAN_MOTION_DOT = .32539E-3
MEAN_MOTION_DDOT = 0

