IDEFIX & ARIANE 42P R/B 
1 27422U 02021B   26048.42872564  .00000287  00000+0  12576-3 0  9990
2 27422  98.5852 347.2796 0010664 245.7547 114.2522 14.31011159241128
AQUA                    
1 27424U 02022A   26048.57211876  .00000962  00000+0  20211-3 0  9997
2 27424  98.4138  15.5767 0001193  47.8065  63.7174 14.61924813265795
CZ-4B R/B               
1 27432U 02024C   26048.57932326  .00000042  00000+0  44517-4 0  9993
2 27432  98.8886 102.0830 0051188  80.5282  79.2939 14.14543820226392
MIDORI II (ADEOS-II)    
1 27597U 02056A   26048.50220768  .00000307  00000+0  13869-3 0  9992
2 27597  98.7734   6.8451 0002147  70.2359 289.9054 14.29269681207413
H-2A R/B                
1 27601U 02056E   26048.47836745  .00000285  00000+0  11479-3 0  9992
2 27601  98.3167   9.6181 0069286 221.1363 248.2322 14.33746352211214
CZ-4B R/B               
1 28059U 03049C   26048.57827567  .00000407  00000+0  10519-3 0  9996
2 28059  98.6858  42.6975 0047094 293.8152  65.8111 14.54998015183670
CZ-2C R/B               
1 28222U 04012C   26048.57339981  .00045947  00000+0  52061-3 0  9993
2 28222  97.7281 111.9956 0015122  28.3678 331.8399 15.62133700201130
SL-16 R/B               
1 28353U 04021B   26048.09181256  .00000344  00000+0  20368-3 0  9992
2 28353  70.9989 275.7212 0003221  59.4851 300.6589 14.14594858119923
CZ-4B R/B               
1 28415U 04035C   26048.55423825  .00007211  00000+0  25702-3 0  9995
2 28415  97.3528  83.0409 0033466  42.8003 317.5833 15.28678487176830
CZ-2C R/B               
1 28480U 04046B   26048.36138900  .00000109  00000+0  55981-4 0  9997
2 28480  98.1995 324.6086 0138634 214.6064 144.6037 14.26984754105609
ARIANE 5 R/B            
1 28499U 04049H   26048.42189913  .00000918  00000+0  10731-3 0  9998
2 28499  98.2593 216.1250 0085252  57.3020 303.6378 14.85225370142785
CZ-2D R/B               
1 28738U 05024B   26048.55707814  .00032539  00000+0  42917-3 0  9993
2 28738  97.3604  62.9938 0007683  94.3884 265.8250 15.58312243136648
